Provider Name,Street Address,City,State,Zipcode,County,Phone Number
101 Mobility - Elgin,2531 Technology Dr Ste 305,Elgin,IL,60124,Kane,(847) 551-5911
101 Mobility - Orland Park,11535 183rd Pl Ste 102,Orland Park,IL,60467,Will,(708) 968-1250
101 Mobility - Naperville,1701 Quincy Ave,Naperville,IL,60540,DUPAGE,(630) 524-0015
101 Mobility - St. Louis,4025 S Old Highway 94 Ste T,Saint Charles,MO,63304,N/A,(636) 447-1414
Absolute Fire Protection,5279 28th Ave,Rockford,IL,61109,Winnebago,(815) 397-6500
Access Elevator Inc,42 Congress Cir W,Roselle,IL,60172,DUPAGE,(414) 758-2891
Accessibility 101,7900 International Dr Ste 300,Minneapolis,MN,55425,N/A,(612) 670-2928
Active Visions Inc,5408 W DEVON AVE,Chicago,IL,60646,Cook,(773) 594-0921
"Ada Total Access, Inc",125 THUNDERBIRD LN STE 5,EAST PEORIA,IL,61611,Tazewell,(309) 698-9290
"All Ability Cycles, LLC",208 E Lincolnway,Jefferson,IA,50129,N/A,(515) 386-8900
All American Acess & Mobility,102 E DeYoung St Ste A,Marion,IL,62959,Williamson,(618) 889-6171
"Amazing Sensory Designs, LLC",6701 S Crandon Ave Apt 10A,Chicago,IL,60649,Cook,(773) 501-6796
America's Backyard,1909 S Briggs St,Joliet,IL,60433,Will,(815) 834-1200
"AMS Auto, Inc",1340 Cobblestone Way,Woodstock,IL,60098,McHenry,(815) 527-7297
Assisted Transportation Systems,238 Development Dr,Columbia,KY,42728,N/A,(270) 384-2220
Assistive Solutions,"93R Compark Rd,","Centerville,",OH,45459,N/A,(419) 673-7450
Autism Community Store,14095 E Exposition Ave,Aurora,CO,80012,N/A,(303) 309-3647
Beck's Home Health Care,1411 Locust St,Eldorado,IL,62930,Saline,(618) 273-9019
Bettenhausen Motor Sales,17514 Oak Park Ave,Tinley Park,IL,60477,Cook,(708) 532-9600
"Capitol Construction Solutions, Inc.",1050 State Route 126,Plainfield,IL,60544,Will,(630) 717-8349
Cardinal Fence & Supply Inc,1025 Industrial Dr.,Bensenville,IL,60106,DUPAGE,(630) 860-5188
CCM Champaign County Mobility,1508 W Anthony Dr,Champaign,IL,61821,N/A,(217) 359-5800
Central States Automatic Spring,13740 California Ave,Blue Island,IL,60406,Cook,(708) 489-9400
CNC Medical Equipment Inc,1814 Glenview Rd,Glenview,IL,60025,Cook,(847) 724-8380
Covered in Comfort LLC,13960 S King Rd,Homer Glen,IL,60491,Will,(708) 732-5297
Craftsmen/Access Unlimited,570 Hance Rd,Binghamton,NY,13903,N/A,(607) 669-4822
Creating Opportunities,1837 W CENTRAL RD,ARLINGTON HEIGHTS,IL,60005,Cook,(847) 385-5004
"Cummings Mobility Conversions & Supply, Inc",6540 Jansen Ave NE,Albertville,MN,55301,N/A,(763) 497-0103
Custom Van Conversions & Mobility,"3720 Oakton St, Skokie",Skokie,Il,60076,Cook,(847) 933-9517
DreamMaker Bath & Kitchen,"3730 Wabash Ave,",Springfield,IL,62711,Sangamon,(217) 529-9300
Enspivation LLC,5646 FERNWOOD CT,Matteson,IL,60443,Cook,(773) 603-8667
Envision Unlimited,8 S Michigan Ave Ste 1700,Chicago,IL,60603,Cook,(312) 565-4875
Especial Needs,1850 Borman Ct,Saint Louis,MO,63146,N/A,(877) 664-4565
European Service at Home Inc,520 N Hicks Rd,Palatine,IL,60067,Cook,(847) 202-1249 x304
Express Kitchen and Bath,9500 W Manhattan Monee Rd,Frankfort,IL,60423,Will,(815) 469-4500
"Extended Home Living Services, Inc.",210 W Campus Dr Ste B,ARLINGTON HEIGHTS,IL,60004,Cook,(847) 215-9490
F E Moran Inc Fire Protection,818 N Main St,Morton,IL,61550,Tazewell,(309) 266-9778
"F.E. Moran, Inc. Fire Protection",2165 Shermer Rd,Northbrook,IL,60062,Cook,(847) 498-4870
FE Moran Security Solutions LLC,201 E. University Ave,Champaign,IL,61820,Champaign,(217) 403-6444
Fessi INC,2401 S 14th St,Mattoon,IL,61938,Coles,(217) 234-2777
"Fire Equipment Sales and Service, Inc.",1902 Fox Dr Ste B,Champaign,IL,61820,Champaign,(217) 234-2777
First Fence Inc,10 N Elm St,Hillside,IL,60162,Cook,(708) 547-7555
Flaghouse,601 Flaghouse Dr,Hasbrouck Heights,NJ,07604,N/A,(800) 793-7900
Flooring of Springfield,2205 Wabash Ave Ste 102,Springfield,IL,62704,Sangamon,(217) 725-1138
Fox Valley Fire & Safety,2730 Pinnacle Dr,Elgin,IL,60124,Kane,(847) 695-5990
Fox Valley Home Services,204 S 13th Ave,St Charles,IL,60174,Kane,(630) 940-8781
Frank Zanotti Tile & Stone Co,6 Walker Ave,Highwood,IL,60040,Lake,(847) 433-3636
"Freedom Motors USA, Inc.",740 Watkins Rd,Battle Creek,MI,49015,N/A,(269) 660-1002
Fun and Function,304 Old Lancaster Rd,Merion Sta,PA,19066,N/A,(800) 231-6329
Gray Matters Alliance,112 W Pitman St,O'Fallon,IL,63366,St Charles,(314) 266-2678
Green Evans Management,61 S Orchard Dr.,"Park Forest,",IL,60466,Cook,(708) 971-5095
"Greg's Tile Service, Inc.",338 N Oak St,Palatine,IL,60067,Cook,(847) 207-6806
HCI Marketing,4270 27th St,Moline,IL,61265,Rock Island,(309) 644-1727
"Health Services Consultants, Inc.",PO Box 3037,Champaign,IL,61826,Champaign,(217) 398-0105 x3255
"Healthcom, Inc",1600 W Jackson St,Sullivan,IL,61951,Moultrie,(800) 525-6237
Home Envy,"4445 Commerce St,.",Evansville,IN,47710,N/A,(812) 568-0700
Hutchison Medical,16561 N County Farm Ln,"Mount Vernon,",IL,62864,Jefferson,(618) 237-6000
"Illini Fire Service, LLC",1600 N Oak St,Champaign,IL,61820,Champaign,(217) 531-1661
"Illinois Home Solutions of America, Inc.",3410 N Main St,EAST PEORIA,IL,61611,Tazewell,(309) 444-3444
Independent Living Solutions,6327 N PULASKI RD,Chicago,IL,60646,COOK,(773) 478-8450
"Iossi Construction, Inc.",1040 W 4th St,Davenport,IA,52802,N/A,(563) 344-0053
Jacob Family Enterprises,"9723 W State Route 161,",Fairview Heights,IL,62208,St. Clair,(618) 397-4391
Johnson Controls Fire Protection,686 High Point Ln,EAST PEORIA,IL,61611,Tazewell,(309) 229-2212
Kalander Enterprises,"921 N Martin Dr,","PALATINE,",IL,60067,Cook,(847) 991-6330
KJ Quality Remodelers INC,318 Summit Ct,Schaumburg,IL,60193,Cook,(630) 890-4291
"L & F Electric, Inc.",2125 Veterans Rd,Morton,IL,61550,Tazewell,(309) 263-1471
L and K Fire Protection Inc,1501 E Main St,Marion,IL,62959,Williamson,(618) 993-3977
Lab Construction Inc,17334 W Westwind Dr,Gurnee,IL,60031,Lake,(847) 269-1974
Lehman Plumbing Inc,11203 N Maher Rd,Brimfield,IL,61517,Peoria,(309) 303-5799
Liebhart Construction Inc.,1301 Canal St,Ottawa,IL,61350,LaSalle,(815) 433-5467
Lifeline Systems Incorporated,111 LAWRENCE ST,Framingham,MA,01702,N/A,(800) 451-0525
"MapHabit, Inc.",75 5th St NW Ste 2240,Atlanta,GA,30308,N/A,(404) 666-9341
"Metropolitan Fire Protection, Inc.",175 Gordon St,Elk Grove Village,IL,60007,Cook,(847) 758-9820
Midwest Transit Equipment,146 W Issert Dr,Kankakee,IL,60901,Kankakee,(815) 933-2412
MobilityWorks,4199 Kinross Lakes Pkwy Ste 300,Richfield,OH,44286,N/A,(234) 312-2000
Moore Management Inc,3445 W Madison St,Chicago,IL,60624,Cook,(312) 296-4423
Mungenast Alton Toyota,850 Homer Adams Pkwy,Alton,IL,62002,Madison,(618) 208-2400
My Home For Life,1388 River Brook Ct,Charlottesville,VA,29901,N/A,(434) 977-6435
New Ability Inc,1005 Main St,Melrose Park,IL,60160,Cook,(708) 345-3939
New Leaf Remodeling,6551 E Riverside Blvd,Rockford,IL,61114,Winnebago,(815) 262-6810
NuToys Leisure Products Inc.,915 W Hillgrove Ave,La Grange,IL,60525,Cook,(708) 579-9055
"Options HME, Inc.",25 Shannon Ct,Highland,IL,62249,Madison,(618) 310-0086
Personal Mobility,2924 N Dirksen Pkwy,Springfield,IL,62702,Sangamon,(217) 241-1548
Petre Construction,1016 Motherhead Rd,Saint Charles,MO,63304,N/A,(636) 939-5919
Pietros Remodeling Services Inc,413 Clifton Ln,Bollingbrook,IL,60440,Will,(312) 451-3369
"Popejoy Plumbing Heating and Electric, Inc.",203 S 10th St,FAIRBURY,IL,61739,Livingston,(815) 692-4471
ProMax Construction,141 W Main St,Decatur,IL,62523,Macon,(217) 424-8900
Promise Mobility LLC,4700 Happy Ln,Arnold,MO,63010,N/A,(314) 200-3855
Purple Ribbon Mobility,410 E Taylor St Ste K1,Griffin,GA,30223,N/A,(678) 572-4410
Ramp Now,2280 Cornell Ave,Montgomery,IL,60538,Kendall,(630) 892-7267
Ramp Roll Inc,5032 Bent Tree Ct,Rockford,IL,61114,Winnebago,(815) 282-5277
Redfern Group Corp.,"8223 W Irving Park Rd,",Chicago,IL,60634,Cook,(847) 962-1565
Rehabmart LLC,3651 Mars Hill Rd,Watkinsville,GA,30677,N/A,(706) 213-1144 x1011
"Rest Assured, LLC",180 Professional Ct,Lafayette,IN,47905,N/A,(877) 338-9193
Rollx Vans,6591 Highway 13 W,Savage,MN,55378,NA,(800) 956-6668
Rustic Wood Fencing,9116 N Milwaukee Ave,Niles,IL,60714,Cook,(847) 827-7456
Security Alarm Corp,1511 E MAIN ST,Salem,IL,62881,Marion,(618) 548-5768
Sentry Security LLC,339 Egidi Dr,Wheeling,IL,60090,Cook,(847) 353-7200
Sherman Dodge,7601 SKOKIE BLVD,Skokie,IL,60077,Cook,(847) 982-9500
"Simplisafe, Inc",294 Washington St Fl 9,Boston,MA,02108,N/A,(617) 208-4020
SimplyHome,48 Fisk Dr,Arden,NC,28704,N/A,(877) 684-3581
Slip-Proof Safety Inc,320 Forest Ave,Willow Springs,IL,60480,Cook,(708) 839-4775
Southern Bus and Mobility,"12950 KOCH LN, P.O. Box 37",Breese,IL,62230,Clinton,(618) 526-4131
Stan Smith Construction,10252 N 330th St,Casey,IL,62420,Clark,(217) 232-5731
Stegle Plumbing,2165 Boyd Rd,Anna,IL,62906,Union,(618) 833-0247
Superior Van & Mobility,3414 Interstate Dr,Evansville,IN,47715,N/A,(812) 402-8267
TEC lab (a division of Trinity Services),101 Hempstead Place,Joliet,IL,60433,Will,(779) 702-5499
Tech Electronics Inc,6437 Manchester Ave,Saint Louis,MO,63139,N/A,(314) 645-6200
Tech Electronics of Illinois,417 Olympia Dr,Bloomington,IL,61704,McLean,(309) 874-2700
TFH (USA) Ltd,4537 Gibsonia Rd,Gibsonia,PA,15044,N/A,(724) 444-6400
The Bike Rack,2930 Campton Hills Dr,St Charles,IL,60175,Kane,(630) 584-6588
Trinity Windows,316 E Broadway St,Littleton,IL,61452,McDonough,(319) 201-0283
Tycour,730 Madison Ave,Madison,IL,62060,Madison,(618) 910-8655
"U.S. Jaclean, Inc.",849 N Church Ct.,Elmhurst,IL,60126,DUPAGE,(630) 777-8079
United Access LLC,9389 Natural Bridge Rd,Saint Louis,MO,63134,N/A,(314) 989-1010
